{"type":"FeatureCollection","features":[{"type":"Feature","properties":{"name":"Czech Republic","source":"geoBoundaries CZE ADM0","vertices_including_closure":300},"geometry":{"type":"Polygon","coordinates":[[[16.812237008554266,50.19101425621755],[16.78334839252321,50.14559923248522],[16.70602855945667,50.09658376282719],[16.641269962683353,50.112173012404355],[16.561117486943395,50.163878562771615],[16.557353409264202,50.22038062751004],[16.522872616044246,50.23935651225188],[16.431301006860217,50.32470169067029],[16.399263314659823,50.31919085567138],[16.360662032723088,50.37955013477437],[16.27863478203848,50.36744472154316],[16.252924848105383,50.40564403377019],[16.221848450493468,50.406922995038585],[16.20500936062826,50.44865316067759],[16.343804604089392,50.49584056637267],[16.401786100024232,50.52988832404167],[16.404650242278432,50.56927315381855],[16.444912330982433,50.57957079106415],[16.34308714218216,50.66150979702482],[16.234819046075298,50.67157088352581],[16.21736146747844,50.633347658157604],[16.100774258394512,50.66251137705797],[16.056083408289282,50.60970550894942],[15.986714464769829,50.61522179824455],[16.00854977402565,50.634493302210245],[15.96716892445891,50.691725823928195],[15.860964472036384,50.674452213691524],[15.816194576143884,50.75532322080379],[15.705706072151832,50.73725967404924],[15.578750934393485,50.77897048599985],[15.524308571700391,50.777003006103996],[15.439524199207384,50.809057275200864],[15.394134093367436,50.77654713040771],[15.353740045796902,50.851380071091455],[15.277062690134104,50.89102159053411],[15.27407689368536,50.9795473153937],[15.236557013790703,50.99866965826746],[15.191839020068658,50.98054702033621],[15.17184856134231,51.02003086999983],[15.129002212343863,50.9901291630089],[15.057721584439067,51.022509383778846],[14.985419733719866,51.01084238251518],[14.96824544514304,50.99001376458077],[15.021713997968018,50.967072940258745],[14.989453733282428,50.92164166912117],[15.00192777883553,50.868779913691974],[14.829588763198567,50.87275244083195],[14.801634255506594,50.82523556036788],[14.722343130085845,50.82206372567665],[14.708602460535666,50.840779914286],[14.618915344180252,50.857759665713616],[14.650200139306186,50.93152407002515],[14.58193671438304,50.913548468369974],[14.560621745511831,50.9252402948666],[14.599072708031485,50.987175036751054],[14.564551199308111,51.010167119410085],[14.453829514959876,51.03594377837223],[14.419834779611806,51.01905702525367],[14.301712913694255,51.05500114540526],[14.25868375857429,50.98753533656889],[14.328182005745356,50.97309716214961],[14.311440886347901,50.95401085183064],[14.402129566881092,50.923853640083834],[14.388003247947976,50.89919958955738],[14.304750220760546,50.88392784004066],[14.233366155130543,50.887599101360045],[14.223500700746222,50.8590866946203],[14.029923702152209,50.804255934518714],[13.990739612529659,50.820006286244414],[13.938986842295359,50.78992927801385],[13.9039068213817,50.79424288463395],[13.90277369425468,50.752998892039194],[13.854940100876465,50.72695353342974],[13.664671760066167,50.73208527645878],[13.602733930194242,50.71015398366679],[13.525240327236958,50.70438742256652],[13.544372340697434,50.677548733164144],[13.464855773491843,50.601779048213984],[13.418588817899572,50.61537747645901],[13.391813730186719,50.64662496712027],[13.29109278826686,50.574929070257205],[13.255925122112147,50.59538639101662],[13.19529107426736,50.50324098487572],[13.056123018832585,50.501235738025294],[13.031693705804603,50.50976409597869],[13.019865712403538,50.44655619433033],[12.936178429354742,50.41181751386853],[12.819032178845097,50.46029115854761],[12.734468792949079,50.43233786533741],[12.707114049801987,50.39711835215307],[12.673271761495814,50.41680356373326],[12.512027827704822,50.39725703876077],[12.492627668747183,50.35621727229052],[12.404663024655541,50.324045098997765],[12.394146794514048,50.28958315506652],[12.331290275433505,50.242447699235285],[12.3195404582286,50.171721868735816],[12.274650697620523,50.19654733955016],[12.293902872842692,50.22103352338538],[12.239473284150492,50.246152499707826],[12.253839788550463,50.27097484234174],[12.201321470402924,50.272835548735095],[12.184601709965515,50.322220406198824],[12.124939537854925,50.31522738544512],[12.138285134663994,50.27502031478221],[12.09761070895099,50.262304234941595],[12.108939977890097,50.23798146063936],[12.215968302850966,50.16820235938376],[12.19956495314305,50.11082420105095],[12.317278886835831,50.05336859843175],[12.36749130456477,50.01742258397613],[12.400430453458425,50.01502049396986],[12.499556673233519,49.97204539101816],[12.478333908991216,49.93553349257312],[12.547673096328651,49.92049247816639],[12.497977104964656,49.83752390011311],[12.473054700502336,49.833667136171336],[12.469326546192049,49.78714357129832],[12.404759726776595,49.762780015754736],[12.442450025563895,49.70381565771629],[12.521985587636681,49.68643962543687],[12.528102823119998,49.61809776928011],[12.56074149071499,49.61960463413482],[12.574347502518327,49.559131678911484],[12.644195307474293,49.522961993728416],[12.655551652448384,49.43479532968916],[12.708703437118913,49.42475603940273],[12.757668111015166,49.39479813859962],[12.803088793465353,49.341622856367906],[12.880011025340432,49.35040259524806],[12.950034935314932,49.34290702879911],[13.029113965355426,49.304324827733645],[13.03398426276184,49.26392602512134],[13.176901850639446,49.16422714997795],[13.170296702931411,49.14400154445146],[13.236062021456537,49.113712815279825],[13.289184771509657,49.1186322537455],[13.344185476509232,49.08888862998034],[13.405832097526345,49.02384264941551],[13.402726627234918,48.98721986458245],[13.508277929002126,48.94213508712649],[13.507074048844126,48.96911038656466],[13.585856403788092,48.96803886590185],[13.621578511720216,48.948982999255165],[13.671437131522152,48.88013962833463],[13.730555791809715,48.88711308804435],[13.764423206917735,48.834475140348694],[13.81523361536715,48.797087990052255],[13.81317894743671,48.77399737256371],[13.876116298416001,48.76660420310461],[13.95580681354811,48.71445209023663],[14.003281320235015,48.70858293345559],[14.053525888094143,48.65292594110106],[14.010561236874114,48.639654465817145],[14.05424064646399,48.60413249032971],[14.27154880625975,48.581374269115],[14.327115799383739,48.55407444794451],[14.38624492709279,48.592673824757235],[14.431414855820835,48.58913240339952],[14.468573300606337,48.64621066815388],[14.564021989885335,48.608405526704765],[14.603138219550857,48.62809513669815],[14.66346028954883,48.581959482088976],[14.721137591517694,48.60237940446459],[14.712341721884007,48.65009791134225],[14.736566862328363,48.69893231476262],[14.808132575362578,48.7338826974995],[14.825527354072372,48.78384994981259],[14.955791020732185,48.758086168940544],[14.972938127070462,48.87465452645477],[14.992918759808715,48.903712099714824],[14.97841861289294,48.980443643275706],[15.020543336656214,49.02052956680657],[15.064842513716027,48.999586308737136],[15.156272082487822,48.99329080926435],[15.1902888612612,48.94328423257948],[15.261617988820735,48.95364751063244],[15.291028294740956,48.9843185730698],[15.36697495152947,48.98188360066175],[15.424755352301107,48.95160729666584],[15.468491481008419,48.95181762050824],[15.513391694194675,48.91412205133389],[15.619601589347173,48.895610935523855],[15.689693968829117,48.855675210627844],[15.753664213044939,48.85217432240319],[15.779535115169683,48.874882870427385],[15.852175867797577,48.86715382222064],[15.88459750334706,48.8420096102252],[15.958382658533193,48.82306061112295],[15.994365729381519,48.77933610251998],[16.10268776535168,48.74541956680033],[16.15397106435188,48.74878954403356],[16.3597696076381,48.72806646837671],[16.410299487088164,48.74329120246132],[16.448698576054383,48.79937640005961],[16.540751029653354,48.81428238665329],[16.593585339361802,48.7826678672675],[16.66374374669856,48.78100894965714],[16.68258523994118,48.727787636460704],[16.747281647672214,48.73211335981421],[16.775787340237315,48.71194255643602],[16.906190339738846,48.71467888234669],[16.918754791965114,48.6224280934461],[16.956707183253535,48.623842128392575],[16.967873742408315,48.66856532646967],[17.0432840583755,48.7642576450501],[17.08865629167636,48.785513718259686],[17.11085267778411,48.831191883431096],[17.201995247180836,48.87814793938979],[17.32166336933556,48.84529740534486],[17.36131802146089,48.81351587049919],[17.396851769294795,48.81332436504519],[17.453188805381632,48.846743684325816],[17.528479672450512,48.812160057698264],[17.59524658513676,48.828556761617605],[17.632977119957783,48.85488992218483],[17.703331513741787,48.86002294109264],[17.781312879238442,48.925275433799406],[17.885305139045325,48.927676638759756],[17.92430920874272,49.01996078739291],[18.02446584011193,49.021230746634444],[18.07077077421787,49.037773156529745],[18.115540399609102,49.09008120608689],[18.106741510227263,49.13418713882745],[18.136706179939672,49.16102002668444],[18.146963931513774,49.24793000051692],[18.184017884934622,49.28699644959685],[18.248105128730337,49.29474037300318],[18.378910812164033,49.33054485751361],[18.41555927981223,49.367547933206495],[18.411938333704907,49.399078314328115],[18.449948967338283,49.393500662470025],[18.547944115332534,49.4678593974837],[18.54574193401203,49.50050635317355],[18.711946066883044,49.50224684769906],[18.754475019173714,49.488378019161544],[18.84020421225044,49.51491412872402],[18.83922413685127,49.560806446766996],[18.804583166492144,49.678872223909146],[18.740969075676798,49.676538816707314],[18.709552272208384,49.70448738838813],[18.625212992681544,49.72237713072869],[18.56942768380941,49.83439234066091],[18.603876325894902,49.85710958471314],[18.565668757232956,49.8806640855219],[18.572907340461043,49.921616075330924],[18.534370186679936,49.89960015035156],[18.4909222666938,49.903386872538825],[18.430752198663843,49.93815659270651],[18.346414387394937,49.940209905644124],[18.32237725408868,49.916310707759465],[18.27630908834567,49.9646327330569],[18.214287552319096,49.972003519986785],[18.206573041943873,49.99793351402255],[18.153838542222374,49.98236748854101],[18.093285446011524,50.01499486507959],[18.089362587372722,50.044117140521244],[18.03360682567604,50.06601868392968],[18.008825019768285,50.03128300420534],[18.03529929102321,50.011006446473615],[17.954044942310045,50.00506627451763],[17.92284937330933,49.97875024859101],[17.868499186093615,49.97248856147014],[17.827691770836882,50.01130388822663],[17.777350762968894,50.02029882322248],[17.730881612937214,50.097161478654456],[17.650345146706968,50.11080676858266],[17.601156814759612,50.169626745931474],[17.7046608177216,50.18490431644083],[17.758463041586836,50.206572340527586],[17.764977513545308,50.23639151542898],[17.724954632653454,50.25675075612653],[17.74964992980828,50.301165050115706],[17.686926606178076,50.32797694912934],[17.689124354033314,50.301861003457844],[17.61209870750498,50.26600837594578],[17.495593036954272,50.27508951648981],[17.438234756248555,50.25166266036065],[17.4206740861089,50.27742349257626],[17.337737655989734,50.28347407823528],[17.3486652668475,50.32835112694243],[17.29156539205236,50.31755871718771],[17.201146360092554,50.364016700770705],[17.203269204221414,50.38635984423027],[17.14333369344021,50.380422056738816],[17.11075248655501,50.40496338456749],[17.052537496118322,50.40696165997568],[16.998296063695435,50.42775106761683],[16.974015734182256,50.417756807716785],[16.90790459951508,50.449450015480096],[16.860781039213432,50.411506171450995],[16.90709731983567,50.39131441822807],[16.955854273204853,50.31222329953158],[17.0026407206055,50.30211882725218],[17.001554844372684,50.25639716543462],[17.02831629019598,50.229990836503475],[16.99854412880149,50.21588272898133],[16.975923056191345,50.244817664631015],[16.882740113432106,50.199841713522986],[16.812237008554266,50.19101425621755]]]}}]}